LUME 1                  
1 43908U 18111AJ  22340.41644737  .00013265  00000+0  39864-3 0  9992
2 43908  97.1671 222.9607 0016315 170.9655 189.1885 15.34396082219726
AOBA VELOX-IV           
1 43940U 19003J   22339.65911335  .00047784  00000+0  88493-3 0  9999
2 43940  97.1085  11.4203 0011012 237.7865 122.2319 15.48797894216513
MOVE-IIB                
1 44398U 19038N   22339.90680973  .00015919  00000+0  66455-3 0  9993
2 44398  97.6469 311.5361 0016691 255.3773 104.5615 15.23613166189099
SONATE                  
1 44400U 19038Q   22336.76932018  .00005123  00000+0  26524-3 0  9997
2 44400  97.6623 306.4173 0020606 273.9482  85.9395 15.16499740188428
LUCKY-7                 
1 44406U 19038W   22339.87835928  .00008353  00000+0  41387-3 0  9992
2 44406  97.6605 310.3036 0019574 258.9910 100.9122 15.17857896188941
BEESAT 9                
1 44412U 19038AC  22339.87714708  .00012429  00000+0  57477-3 0  9997
2 44412  97.6560 310.9656 0016585 262.0685  97.8667 15.20183248188705
JAISAT-1                
1 44419U 19038F   22339.87585906  .00012235  00000+0  55875-3 0  9995
2 44419  97.6562 311.9321 0015579 258.4544 101.4942 15.20633120189077
DUCHIFAT-3              
1 44854U 19089C   22340.59929296  .00003641  00000+0  27488-3 0  9999
2 44854  36.9639 158.8596 0006385 191.7266 221.7558 15.02478733163829
EYESAT-NANO             
1 44877U 19092E   22340.44171422  .00013446  00000+0  51285-3 0  9998
2 44877  97.4587 164.0769 0011630 109.9721 250.2772 15.26738559164563
ORBITAL FACTORY 2 (OF-2)
1 45113U 19071C   22339.30177075  .00061334  00000+0  79144-3 0  9995
2 45113  51.6341 292.3052 0011636  85.1168 275.1153 15.58316218159880
M2 PATHFINDER           
1 45727U 20037E   22339.47545272  .00000901  00000+0  93036-4 0  9996
2 45727  97.7409 151.9939 0012382 182.8848 177.2303 14.92543531132337
NETSAT-4                
1 46504U 20068U   22339.83725077  .00003675  00000+0  26603-3 0  9993
2 46504  97.7406 279.5451 0013331 103.6609 256.6102 15.04561569119806
NETSAT-3                
1 46505U 20068V   22339.79127430  .00003455  00000+0  25092-3 0  9995
2 46505  97.7398 279.3894 0011961 107.9848 252.2683 15.04497401119804
NETSAT-1                
1 46506U 20068W   22339.81414656  .00002754  00000+0  20123-3 0  9999
2 46506  97.7409 279.3265 0010369 114.8282 245.4023 15.04448173119804
NETSAT-2                
1 46507U 20068X   22339.82518663  .00003311  00000+0  24101-3 0  9994
2 46507  97.7404 279.3281 0009881 122.1606 238.0580 15.04460864119758
SAI-1 NANOCONNECT-2     
1 47701U 21015C   22339.74049300  .00018106  00000+0  58692-3 0  9992
2 47701  97.4104  56.1782 0009830 199.0210 161.0666 15.32003844 98392
WILDTRACKCUBE-SIMBA     
1 47941U 21022K   22340.47641532  .00005075  00000+0  32702-3 0  9998
2 47941  97.5140 236.2884 0018878 279.9150 255.1352 15.08628796 93918
BEESAT-6                
1 47957U 21022AB  22336.67780957  .00008711  00000+0  52089-3 0  9997
2 47957  97.5118 233.0779 0017800 294.2968  65.6403 15.11165324 93186
SMOG-1                  
1 47964U 21022AJ  22339.74024068  .00010944  00000+0  62486-3 0  9993
2 47964  97.5156 237.5423 0015632 269.6009  90.3431 15.12799572 92751
MMSATS-1                
1 47976U 98067SJ  22340.57907215  .00047451  00000+0  37758-3 0  9993
2 47976  51.6355 174.5094 0002582 199.3121 258.1518 15.70713261 97192
BCCSAT-1                
1 48041U 21022AK  22339.70071835  .00008643  00000+0  51060-3 0  9999
2 48041  97.5158 236.8875 0012371 269.0413  90.9400 15.11676432 92685
BEESAT-5                
1 48083U 21022AM  22336.44273923  .00009266  00000+0  54661-3 0  9997
2 48083  97.5102 232.8861 0017304 295.2595  64.6842 15.11643999 92280
BEESAT-7                
1 48084U 21022AN  22332.69847043  .00008084  00000+0  48175-3 0  9991
2 48084  97.5108 229.1864 0018056 308.6950  51.2665 15.11309754 91303
BEESAT-8                
1 48085U 21022AP  22332.97678892  .00005343  00000+0  32491-3 0  9996
2 48085  97.5122 229.4217 0017977 307.7353  52.2247 15.10733788 91903
LEDSAT                  
1 49069U 21073D   22340.42228341  .00005536  00000+0  33978-3 0  9999
2 49069  97.5085  49.8965 0027418  66.4257 293.9848 15.10200555 71776
HSU-SAT1                
1 53462U 98067UB  22340.02689902  .00063458  00000+0  69802-3 0  9990
2 53462  51.6356 200.2948 0009743 184.2743 175.8170 15.62497643 18011
FUTABA                  
1 53463U 98067UC  22339.88250474  .00085166  00000+0  83122-3 0  9992
2 53463  51.6346 200.0725 0010334 183.8453 176.2465 15.65401717 18004
TUMNANOSAT              
1 53464U 98067UD  22339.86487129  .00115113  00000+0  98313-3 0  9994
2 53464  51.6337 199.2011 0010967 185.4129 174.6751 15.68559602 18013
1998-067UL              
1 54534U 98067UL  22339.61833168  .00040890  00000+0  70348-3 0  9991
2 54534  51.6410 207.3204 0007467 135.2480 224.9113 15.50661211   566
1998-067UM              
1 54535U 98067UM  22339.61832908  .00035166  00000+0  60685-3 0  9996
2 54535  51.6410 207.3202 0007551 135.1442 225.0159 15.50646266   561
1998-067UN              
1 54536U 98067UN  22339.61829749  .00031493  00000+0  54446-3 0  9993
2 54536  51.6409 207.3199 0007668 135.2556 224.9053 15.50648939   527
1998-067UP              
1 54537U 98067UP  22339.68268714  .00034360  00000+0  59218-3 0  9998
2 54537  51.6408 206.9999 0007764 135.6111 224.5502 15.50691734   579
BEIJING 1               
1 28890U 05043A   22340.59203498  .00000240  00000+0  57641-4 0  9992
2 28890  98.1373 100.0416 0015041   0.4513 359.6707 14.61553453912282
HJ-1A                   
1 33320U 08041A   22340.52435528  .00000432  00000+0  66348-4 0  9998
2 33320  97.6622   5.3825 0021995  35.3186 324.9492 14.78005163767806
HJ-1B                   
1 33321U 08041B   22340.47489077  .00000932  00000+0  13457-3 0  9998
2 33321  97.6776   9.2457 0035343  52.2551 308.1873 14.78061529767790
YAOGAN 4                
1 33446U 08061A   22340.53293642  .00000685  00000+0  10272-3 0  9993
2 33446  97.8342 275.5662 0014963 300.2587  59.7143 14.77605040755006
DEIMOS-1                
1 35681U 09041A   22340.36255903  .00000360  00000+0  64463-4 0  9996
2 35681  97.6935 182.4574 0002661  58.7523 301.3944 14.72189549717065
UK-DMC 2                
1 35683U 09041C   22340.39182502  .00000552  00000+0  96122-4 0  9995
2 35683  97.7090 144.3265 0001847  84.4874 275.6553 14.71617737716796
RISAT 1                 
1 38248U 12017A   22340.47787547  .00003578  00000+0  20552-3 0  9995
2 38248  97.5490 350.0504 0005096  44.4660 315.6979 15.13146296584849
DMC3-FM1                
1 40715U 15032A   22340.34345555  .00000486  00000+0  67262-4 0  9997
2 40715  97.8225 223.5609 0005388 333.3572  26.7355 14.82300052398754
DMC3-FM2                
1 40716U 15032B   22340.36680927  .00000499  00000+0  68959-4 0  9993
2 40716  97.8268 224.3147 0007434 332.7714  27.3092 14.82293280398763
DMC3-FM3                
1 40717U 15032C   22340.31969998  .00000495  00000+0  68478-4 0  9999
2 40717  97.8307 225.2576 0008740 328.0956  31.9725 14.82289570398751
NOAA 15                 
1 25338U 98030A   22340.51666981  .00000172  00000+0  90029-4 0  9997
2 25338  98.6279   7.6703 0010908 151.1462 209.0324 14.26204136277796
DMSP 5D-3 F15 (USA 147) 
1 25991U 99067A   22340.48188380  .00000153  00000+0  99977-4 0  9991
2 25991  99.0642 335.1065 0010986  63.9232  85.8770 14.16606203188146
DMSP 5D-3 F16 (USA 172) 
1 28054U 03048A   22340.45826126  .00000090  00000+0  71655-4 0  9995
2 28054  99.0018 332.2721 0007158 184.6897 326.7108 14.13712633987329
NOAA 18                 
1 28654U 05018A   22340.44518253  .00000181  00000+0  12164-3 0  9998
2 28654  98.9330  50.6009 0014029 201.8245 158.2330 14.12817066904356
METEOSAT-9 (MSG-2)      
1 28912U 05049B   22339.76702519  .00000135  00000+0  00000+0 0  9993
2 28912   6.4080  65.1588 0001792 192.0944 139.1607  1.00277078 62101
EWS-G1 (GOES 13)        
1 29155U 06018A   22340.37688566  .00000051  00000+0  00000+0 0  9991
2 29155   1.0140  93.6496 0006841 148.4102  30.1109  1.00273915 60587
DMSP 5D-3 F17 (USA 191) 
1 29522U 06050A   22340.50770576  .00000139  00000+0  95442-4 0  9999
2 29522  98.7614 352.3022 0010654 128.4125 231.8006 14.14144218830228
FENGYUN 3A              
1 32958U 08026A   22340.12542902  .00000090  00000+0  63487-4 0  9999
2 32958  98.5283 295.9399 0007701 244.6197 115.4182 14.18767001752672
FENGYUN 2E              
1 33463U 08066A   22339.82696818 -.00000198  00000+0  00000+0 0  9993
2 33463   6.2858  64.2793 0000967 265.2146 129.6532  1.00274771 51169
NOAA 19                 
1 33591U 09005A   22340.53704269  .00000208  00000+0  13687-3 0  9999
2 33591  99.1284  18.1304 0014727  66.6745 293.5974 14.12647034712740
GOES 14                 
1 35491U 09033A   22340.45642556 -.00000080  00000+0  00000+0 0  9992
2 35491   0.1822 261.1009 0018231 323.2789 270.9625  1.00271554 49239
METEOR-M 1              
1 35865U 09049A   22339.96919064  .00000061  00000+0  46534-4 0  9994
2 35865  98.5532 305.1051 0003416  87.4646 272.6924 14.22383743686060
DMSP 5D-3 F18 (USA 210) 
1 35951U 09057A   22340.54957199  .00000222  00000+0  14076-3 0  9990
2 35951  98.7443 315.8752 0010571 321.8635  38.1789 14.13598534677428
GOES 15                 
1 36411U 10008A   22340.36824132  .00000065  00000+0  00000+0 0  9993
2 36411   0.1397 283.2370 0003171 286.0239 230.6539  1.00281166 46737
COMS 1                  
1 36744U 10032A   22339.64525435 -.00000333  00000+0  00000+0 0  9991
2 36744   1.5120  91.6891 0001075 163.0881 180.1089  1.00271516 38156
FENGYUN 3B              
1 37214U 10059A   22340.26748222  .00000043  00000+0  46780-4 0  9991
2 37214  99.0919 349.2993 0021413 229.3406 130.5903 14.14277213625244
SUOMI NPP               
1 37849U 11061A   22340.41111512  .00000061  00000+0  49761-4 0  9994
2 37849  98.7500 276.6873 0001171  99.3790  48.1164 14.19523238575580
